STARLINK-5068           
1 55423U 23014AJ  24131.91363576 -.00000283  00000+0 -15912-4 0  9996
2 55423  69.9992 328.2426 0002959 269.8855  90.1965 14.98331331 71532
STARLINK-5615           
1 55425U 23014AL  24132.50609997  .00003076  00000+0  26531-3 0  9993
2 55425  69.9995 326.6996 0002332 275.5834  84.5059 14.98358667 70684
STARLINK-5638           
1 55426U 23014AM  24132.52280074  .00003812  00000+0  32686-3 0  9993
2 55426  69.9971 326.7568 0003535 282.8718  77.2046 14.98359713 70681
STARLINK-5073           
1 55427U 23014AN  24132.51028089  .00000968  00000+0  88857-4 0  9990
2 55427  69.9995 326.7151 0003166 271.2023  88.8774 14.98344292 70689
STARLINK-5064           
1 55428U 23014AP  24132.53114848  .00003030  00000+0  26148-3 0  9999
2 55428  69.9987 326.7873 0003015 270.6480  89.4333 14.98352172 70689
STARLINK-5645           
1 55429U 23014AQ  24132.51863159  .00000044  00000+0  11520-4 0  9995
2 55429  69.9992 326.7443 0003410 268.3584  91.7184 14.98359193 70687
STARLINK-5642           
1 55430U 23014AR  24131.90968128  .00001396  00000+0  12478-3 0  9994
2 55430  70.0000 348.0915 0002907 264.9640  95.1187 14.98338246 71046
STARLINK-5643           
1 55431U 23014AS  24131.92615776 -.00000149  00000+0 -47107-5 0  9991
2 55431  69.9992 328.2901 0002827 267.7754  92.3082 14.98331374 71539
STARLINK-5637           
1 55432U 23014AT  24132.04737042  .00003105  00000+0  26778-3 0  9999
2 55432  69.9996 347.7696 0002912 270.5235  89.5591 14.98351739 70126
STARLINK-5570           
1 55433U 23014AU  24132.57307699  .00004550  00000+0  38850-3 0  9998
2 55433  69.9972 346.3903 0003348 269.7729  90.3046 14.98365981 70207
STARLINK-5621           
1 55434U 23014AV  24131.92638953 -.00001523  00000+0 -11987-3 0  9998
2 55434  70.0009 348.1493 0002979 264.1568  95.9251 14.98320368 71047
STARLINK-5626           
1 55435U 23014AW  24131.91807134 -.00004006  00000+0 -32840-3 0  9997
2 55435  69.9993 348.1218 0002728 270.4340  89.6507 14.98298124 71040
STARLINK-5640           
1 55436U 23014AX  24131.93055542  .00000560  00000+0  54733-4 0  9993
2 55436  69.9998 348.1632 0002900 266.7617  93.3210 14.98334211 71044
STARLINK-5080           
1 55437U 23014AY  24131.91195331  .00150661  00000+0  57558-2 0  9997
2 55437  69.9924 332.0597 0008650 190.6241 169.4751 15.25829569 71447
STARLINK-5074           
1 55438U 23014AZ  24132.51418963  .00004325  00000+0  36971-3 0  9996
2 55438  69.9978 306.4692 0002877 267.3599  92.7231 14.98368337 71183
STARLINK-5634           
1 55439U 23014BA  24131.93473066  .00000953  00000+0  87695-4 0  9990
2 55439  69.9994 348.1799 0003351 275.1246  84.9531 14.98330248 71048
STARLINK-5699           
1 55449U 23015A   24131.81795394  .00000782  00000+0  72922-4 0  9997
2 55449  43.0028 355.4594 0001187 267.2309  92.8397 15.02536677 71229
STARLINK-5686           
1 55450U 23015B   24132.02071926  .00004720  00000+0  36421-3 0  9990
2 55450  43.0049 354.4051 0001461 272.1239  87.9436 15.02543030 70132
STARLINK-5656           
1 55451U 23015C   24132.08052563  .00009920  00000+0  74788-3 0  9998
2 55451  43.0047 353.9928 0001648 255.1315 104.9345 15.02560028 70327
STARLINK-5683           
1 55452U 23015D   24132.07608518  .00024729  00000+0  18369-2 0  9991
2 55452  43.0042 353.9570 0002153 240.0797 119.9832 15.02583285 70322
STARLINK-5684           
1 55453U 23015E   24131.80685478  .00001632  00000+0  13584-3 0  9995
2 55453  43.0041 355.3790 0001542 267.6065  92.4601 15.02537862 70280
STARLINK-5636           
1 55454U 23015F   24131.99962657  .00021486  00000+0  15997-2 0  9991
2 55454  43.0046 354.2360 0001557 273.6310  86.4354 15.02560978 70319
STARLINK-5680           
1 55455U 23015G   24132.01295286  .00005809  00000+0  44468-3 0  9990
2 55455  43.0042 354.3460 0001678 261.9635  98.1017 15.02540247 70315
STARLINK-5058           
1 55456U 23015H   24132.00073851  .00006568  00000+0  50074-3 0  9995
2 55456  43.0047 354.2525 0001716 257.6034 102.4616 15.02543922 70137
STARLINK-5682           
1 55457U 23015J   24132.00295792  .00002039  00000+0  16592-3 0  9992
2 55457  43.0025 354.2713 0001334 303.6621  56.4094 15.02549008 70312
STARLINK-5020           
1 55458U 23015K   24132.05611682  .00024590  00000+0  18278-2 0  9996
2 55458  43.0032 353.8065 0000973 280.7395  79.3338 15.02561804 70321
STARLINK-5669           
1 55459U 23015L   24131.99407923  .00007224  00000+0  54911-3 0  9990
2 55459  43.0041 354.2056 0001457 266.7920  93.2755 15.02547036 70311
STARLINK-5678           
1 55460U 23015M   24131.99074617  .00006033  00000+0  46108-3 0  9998
2 55460  43.0077 354.1783 0001875 260.9654  99.0976 15.02553937 70318
STARLINK-5646           
1 55461U 23015N   24132.06387605  .00003656  00000+0  28546-3 0  9996
2 55461  43.0060 353.8656 0001655 252.3552 107.7110 15.02554751 70327
STARLINK-5673           
1 55462U 23015P   24131.64725959  .00000199  00000+0  29801-4 0  9993
2 55462  43.0047 355.8995 0001396 271.6380  88.4303 15.02541802 70261
STARLINK-5677           
1 55463U 23015Q   24131.98519861  .00001392  00000+0  11803-3 0  9992
2 55463  43.0021 354.1351 0000704 293.3265  66.7503 15.02543002 70318
STARLINK-5676           
1 55464U 23015R   24131.77355845  .00000813  00000+0  75229-4 0  9990
2 55464  43.0037 355.1249 0001660 274.0563  86.0090 15.02532520 70287
STARLINK-5674           
1 55465U 23015S   24131.97631707  .00006039  00000+0  46158-3 0  9991
2 55465  43.0040 354.0687 0001738 275.5278  84.5366 15.02549493 70131
STARLINK-5628           
1 55466U 23015T   24132.02614892  .00007055  00000+0  53662-3 0  9992
2 55466  43.0057 353.5809 0001582 274.4336  85.6326 15.02551243 70325
STARLINK-5679           
1 55467U 23015U   24132.11591707  .00010073  00000+0  75893-3 0  9996
2 55467  43.0039 353.3961 0001618 270.3073  89.7584 15.02574385 70330
STARLINK-5672           
1 55468U 23015V   24131.70485545  .00002576  00000+0  20569-3 0  9992
2 55468  43.0054 355.4693 0001498 263.5587  96.5085 15.02542152 70275
STARLINK-5681           
1 55469U 23015W   24131.97409238  .00001652  00000+0  13729-3 0  9991
2 55469  43.0037 354.0472 0001320 252.6783 107.3915 15.02545909 70319
STARLINK-5708           
1 55470U 23015X   24132.03280209  .00013796  00000+0  10334-2 0  9996
2 55470  43.0037 353.6289 0001674 249.2378 110.8285 15.02569605 70325
STARLINK-5711           
1 55471U 23015Y   24132.49589652  .00012414  00000+0  93101-3 0  9991
2 55471  43.0091 351.0880 0002396 280.3493  79.7079 15.02592054 70396
STARLINK-5705           
1 55472U 23015Z   24132.56164161  .00009827  00000+0  74066-3 0  9997
2 55472  43.0134 338.5724 0003660 269.4809  90.5614 15.02577401 70548
STARLINK-5687           
1 55473U 23015AA  24131.88082232  .00066456  00000+0  40696-2 0  9992
2 55473  43.0048 350.8455 0008957 251.6281 108.3590 15.09307435 70346
STARLINK-5689           
1 55474U 23015AB  24132.13341663  .00003285  00000+0  25801-3 0  9991
2 55474  43.0041   6.5178 0001806 246.2335 113.8318 15.02558781 70189
STARLINK-5650           
1 55475U 23015AC  24132.02280441 -.00000876  00000+0 -49796-4 0  9991
2 55475  43.0039 353.5512 0001669 261.8296  98.2357 15.02538107 70325
STARLINK-5685           
1 55477U 23015AE  24132.55607833  .00025557  00000+0  18956-2 0  9992
2 55477  43.0025 338.5255 0001523 288.3452  71.7225 15.02625700 70546
STARLINK-5691           
1 55478U 23015AF  24131.62432836  .00006546  00000+0  49924-3 0  9996
2 55478  43.0072 343.5805 0001677 262.1384  97.9268 15.02533332 70401
STARLINK-5688           
1 55479U 23015AG  24132.56496122  .00015116  00000+0  11297-2 0  9993
2 55479  43.0063 338.5923 0001733 278.8068  81.2579 15.02600688 70548
STARLINK-5690           
1 55480U 23015AH  24132.14751689  .00004641  00000+0  36584-3 0  9999
2 55480  43.0061   5.6867 0001545 268.5938  91.4727 15.01748696 70011
STARLINK-5694           
1 55481U 23015AJ  24132.06251356  .00052011  00000+0  38328-2 0  9998
2 55481  43.0049   6.8443 0001609 254.7669 105.2996 15.02575261 70176
STARLINK-5693           
1 55482U 23015AK  24132.37266467  .00008850  00000+0  66839-3 0  9993
2 55482  43.0070   4.8749 0001556 268.1152  91.9512 15.02593861 70042
STARLINK-5692           
1 55483U 23015AL  24131.38774454  .00002348  00000+0  18878-3 0  9990
2 55483  43.0053  10.3817 0001567 263.2463  96.8201 15.02540638 70071
STARLINK-5696           
1 55484U 23015AM  24132.37597503  .00009781  00000+0  73667-3 0  9994
2 55484  43.0073   4.8972 0001644 269.3016  90.7639 15.02609479 70225
STARLINK-5695           
1 55485U 23015AN  24132.05918490  .00006302  00000+0  48092-3 0  9992
2 55485  43.0060   6.8160 0001316 260.1400  99.9294 15.02555402 69991
STARLINK-5704           
1 55486U 23015AP  24132.37823679  .00032453  00000+0  24021-2 0  9993
2 55486  43.0047   4.8674 0001533 269.1053  90.9614 15.02603073 70222
STARLINK-5701           
1 55487U 23015AQ  24132.06028588  .00024672  00000+0  18335-2 0  9991
2 55487  43.0052   6.8264 0001422 267.5929  92.4751 15.02567248 70173
STARLINK-5706           
1 55488U 23015AR  24132.03587603  .00005792  00000+0  44331-3 0  9995
2 55488  43.0052   6.6395 0001509 269.8590  90.2079 15.02551288 70178
STARLINK-5371           
1 55489U 23015AS  24132.04919777  .00006257  00000+0  47764-3 0  9998
2 55489  43.0056   6.7433 0001436 262.1484  97.9195 15.02553647 70178
STARLINK-5373           
1 55490U 23015AT  24132.37935092  .00023835  00000+0  17708-2 0  9999
2 55490  43.0040   4.9123 0001013 282.9344  77.1385 15.02593627 70044
STARLINK-5364           
1 55491U 23015AU  24132.56594043  .00015444  00000+0  11534-2 0  9996
2 55491  42.9997 337.7297 0000395 258.4753 101.6045 15.02614690 70553
STARLINK-5013           
1 55492U 23015AV  24132.37158477  .00003037  00000+0  23967-3 0  9992
2 55492  43.0021   4.8620 0001024 289.8513  70.2219 15.02554799 70049
